FENGYUN 1C DEB          
1 35235U 99025DQT 17345.90445300  .00010237  00000-0  70613-3 0  9991
2 35235  99.4484 229.5034 0041980 240.4731 119.2301 15.05357334261266
